$$SOE
2460728.500000000, A.D. 2025-Feb-22 00:00:00.0000, 1.302240962165606E+08, -2.110087226673376E+08, -3.379826189266463E+07,
2460735.500000000, A.D. 2025-Mar-01 00:00:00.0000, 1.454800645155639E+08, -2.094999513227983E+08, -3.548048200835964E+07,
2460742.500000000, A.D. 2025-Mar-08 00:00:00.0000, 1.603228367879538E+08, -2.073952488610480E+08, -3.706184581395911E+07,
2460749.500000000, A.D. 2025-Mar-15 00:00:00.0000, 1.747464768492033E+08, -2.047476235422386E+08, -3.854625017473421E+07,
2460756.500000000, A.D. 2025-Mar-22 00:00:00.0000, 1.887484614778031E+08, -2.016053546588239E+08, -3.993758709359957E+07,
2460763.500000000, A.D. 2025-Mar-29 00:00:00.0000, 2.023289275927167E+08, -1.980123620504363E+08, -4.123968632421727E+07,
2460770.500000000, A.D. 2025-Apr-05 00:00:00.0000, 2.154900683089233E+08, -1.940085801301851E+08, -4.245627602851859E+07,
2460777.500000000, A.D. 2025-Apr-12 00:00:00.0000, 2.282356491967693E+08, -1.896303208238848E+08, -4.359095676939159E+07,
2460784.500000000, A.D. 2025-Apr-19 00:00:00.0000, 2.405706219030236E+08, -1.849106171317802E+08, -4.464718540474302E+07,
2460791.500000000, A.D. 2025-Apr-26 00:00:00.0000, 2.525008165762320E+08, -1.798795426183812E+08, -4.562826626159208E+07,
2460798.500000000, A.D. 2025-May-03 00:00:00.0000, 2.640326977623586E+08, -1.745645047353386E+08, -4.653734758304843E+07,
2460805.500000000, A.D. 2025-May-10 00:00:00.0000, 2.751731712384219E+08, -1.689905117010407E+08, -4.737742173417573E+07,
2460812.500000000, A.D. 2025-May-17 00:00:00.0000, 2.859294316686858E+08, -1.631804138221629E+08, -4.815132804031817E+07,
2460819.500000000, A.D. 2025-May-24 00:00:00.0000, 2.963088430858350E+08, -1.571551207952645E+08, -4.886175743597279E+07,
2460826.500000000, A.D. 2025-May-31 00:00:00.0000, 3.063188460608787E+08, -1.509337964893721E+08, -4.951125831555372E+07,
2460833.500000000, A.D. 2025-Jun-07 00:00:00.0000, 3.159668859170050E+08, -1.445340319503987E+08, -5.010224299677383E+07,
2460840.500000000, A.D. 2025-Jun-14 00:00:00.0000, 3.252603554237974E+08, -1.379719992471524E+08, -5.063699430495901E+07,
2460847.500000000, A.D. 2025-Jun-21 00:00:00.0000, 3.342065498201143E+08, -1.312625913036704E+08, -5.111767241926848E+07,
2460854.500000000, A.D. 2025-Jun-28 00:00:00.0000, 3.428126345954421E+08, -1.244195477015666E+08, -5.154632195390772E+07,
2460861.500000000, A.D. 2025-Jul-05 00:00:00.0000, 3.510856223547223E+08, -1.174555659025082E+08, -5.192487884116533E+07,
2460868.500000000, A.D. 2025-Jul-12 00:00:00.0000, 3.590323558489609E+08, -1.103824001533861E+08, -5.225517689374094E+07,
2460875.500000000, A.D. 2025-Jul-19 00:00:00.0000, 3.666594959821298E+08, -1.032109499595136E+08, -5.253895406095904E+07,
2460882.500000000, A.D. 2025-Jul-26 00:00:00.0000, 3.739735139043289E+08, -9.595133935672140E+07, -5.277785837487153E+07,
2460889.500000000, A.D. 2025-Aug-02 00:00:00.0000, 3.809806863766942E+08, -8.861298801057944E+07, -5.297345357781985E+07,
2460896.500000000, A.D. 2025-Aug-09 00:00:00.0000, 3.876870937239614E+08, -8.120467509174652E+07, -5.312722443201894E+07,
2460903.500000000, A.D. 2025-Aug-16 00:00:00.0000, 3.940986198807241E+08, -7.373459681813298E+07, -5.324058172703712E+07,
2460910.500000000, A.D. 2025-Aug-23 00:00:00.0000, 4.002209543624812E+08, -6.621041837722257E+07, -5.331486701856153E+07,
2460917.500000000, A.D. 2025-Aug-30 00:00:00.0000, 4.060595961188273E+08, -5.863932015582471E+07, -5.335135708110916E+07,
2460924.500000000, A.D. 2025-Sep-06 00:00:00.0000, 4.116198575563218E+08, -5.102803784180768E+07, -5.335126787635500E+07,
2460931.500000000, A.D. 2025-Sep-13 00:00:00.0000, 4.169068668265245E+08, -4.338289938224193E+07, -5.331575810202093E+07,
2460938.500000000, A.D. 2025-Sep-20 00:00:00.0000, 4.219255714611945E+08, -3.570986088510638E+07, -5.324593277115203E+07,
2460945.500000000, A.D. 2025-Sep-27 00:00:00.0000, 4.266807442597188E+08, -2.801453874066054E+07, -5.314284667970054E+07,
2460952.500000000, A.D. 2025-Oct-04 00:00:00.0000, 4.311769892930809E+08, -2.030223776529947E+07, -5.300750754894952E+07,
2460959.500000000, A.D. 2025-Oct-11 00:00:00.0000, 4.354187475581611E+08, -1.257797661429965E+07, -5.284087890116560E+07,
2460966.500000000, A.D. 2025-Oct-18 00:00:00.0000, 4.394103024936860E+08, -4.846511007091857E+06, -5.264388273205110E+07,
2460973.500000000, A.D. 2025-Oct-25 00:00:00.0000, 4.431557854409859E+08, 2.887645006903142E+06, -5.241740200628293E+07,
2460980.500000000, A.D. 2025-Nov-01 00:00:00.0000, 4.466591810453000E+08, 1.062019954500616E+07, -5.216228299199399E+07,
2460987.500000000, A.D. 2025-Nov-08 00:00:00.0000, 4.499243325986069E+08, 1.834706493039857E+07, -5.187933745252305E+07,
2460994.500000000, A.D. 2025-Nov-15 00:00:00.0000, 4.529549474462222E+08, 2.606434104697375E+07, -5.156934472548100E+07,
2461001.500000000, A.D. 2025-Nov-22 00:00:00.0000, 4.557546028397330E+08, 3.376830008028264E+07, -5.123305371881336E+07,
2461008.500000000, A.D. 2025-Nov-29 00:00:00.0000, 4.583267520675102E+08, 4.145537364747503E+07, -5.087118472680353E+07,
2461015.500000000, A.D. 2025-Dec-06 00:00:00.0000, 4.606747285769994E+08, 4.912214206364815E+07, -5.048443087757610E+07,
2461022.500000000, A.D. 2025-Dec-13 00:00:00.0000, 4.628017485193916E+08, 5.676532226798707E+07, -5.007345953637800E+07,
2461029.500000000, A.D. 2025-Dec-20 00:00:00.0000, 4.647109152061800E+08, 6.438175533682062E+07, -4.963891390942020E+07,
2461036.500000000, A.D. 2025-Dec-27 00:00:00.0000, 4.664052244016013E+08, 7.196839609053190E+07, -4.918141454516356E+07,
2461043.500000000, A.D. 2026-Jan-03 00:00:00.0000, 4.678875689929526E+08, 7.952230410356264E+07, -4.870156065626657E+07,
2461050.500000000, A.D. 2026-Jan-10 00:00:00.0000, 4.691607431515461E+08, 8.704063537083516E+07, -4.819993133403507E+07,
2461057.500000000, A.D. 2026-Jan-17 00:00:00.0000, 4.702274462207842E+08, 9.452063447808006E+07, -4.767708668997012E+07,
2461064.500000000, A.D. 2026-Jan-24 00:00:00.0000, 4.710902864139801E+08, 1.019596272439672E+08, -4.713356893502760E+07,
2461071.500000000, A.D. 2026-Jan-31 00:00:00.0000, 4.717517843507926E+08, 1.093550137773174E+08, -4.656990340427002E+07,
2461078.500000000, A.D. 2026-Feb-07 00:00:00.0000, 4.722143764998831E+08, 1.167042618473981E+08, -4.598659954182086E+07,
2461085.500000000, A.D. 2026-Feb-14 00:00:00.0000, 4.724804187872802E+08, 1.240049005110467E+08, -4.538415187485658E+07,
2461092.500000000, A.D. 2026-Feb-21 00:00:00.0000, 4.725521907635352E+08, 1.312545145356494E+08, -4.476304096886878E+07,
2461099.500000000, A.D. 2026-Feb-28 00:00:00.0000, 4.724318992491071E+08, 1.384507407373716E+08, -4.412373417374936E+07,
2461106.500000000, A.D. 2026-Mar-07 00:00:00.0000, 4.721216794053712E+08, 1.455912642545337E+08, -4.346668613445692E+07,
2461113.500000000, A.D. 2026-Mar-14 00:00:00.0000, 4.716235960135348E+08, 1.526738123943915E+08, -4.279233951469216E+07,
2461120.500000000, A.D. 2026-Mar-21 00:00:00.0000, 4.709396467482626E+08, 1.596961489246992E+08, -4.210112586298558E+07,
2461127.500000000, A.D. 2026-Mar-28 00:00:00.0000, 4.700717654410830E+08, 1.666560698161969E+08, -4.139346635533959E+07,
2461134.500000000, A.D. 2026-Apr-04 00:00:00.0000, 4.690218247365083E+08, 1.735513994500346E+08, -4.066977244053940E+07,
2461141.500000000, A.D. 2026-Apr-11 00:00:00.0000, 4.677916384222681E+08, 1.803799869106271E+08, -3.993044644515832E+07,
2461148.500000000, A.D. 2026-Apr-18 00:00:00.0000, 4.663829636001531E+08, 1.871397023383475E+08, -3.917588215568580E+07,
2461155.500000000, A.D. 2026-Apr-25 00:00:00.0000, 4.647975027498463E+08, 1.938284333388113E+08, -3.840646538281690E+07,
2461162.500000000, A.D. 2026-May-02 00:00:00.0000, 4.630369057224240E+08, 2.004440814024271E+08, -3.762257451499733E+07,
2461169.500000000, A.D. 2026-May-09 00:00:00.0000, 4.611027717939109E+08, 2.069845582525400E+08, -3.682458107983445E+07,
2461176.500000000, A.D. 2026-May-16 00:00:00.0000, 4.589966521624804E+08, 2.134477822458565E+08, -3.601285033847654E+07,
2461183.500000000, A.D. 2026-May-23 00:00:00.0000, 4.567200529457177E+08, 2.198316758333124E+08, -3.518774183580480E+07,
2461190.500000000, A.D. 2026-May-30 00:00:00.0000, 4.542744366031831E+08, 2.261341643886086E+08, -3.434960969116686E+07,
2461197.500000000, A.D. 2026-Jun-06 00:00:00.0000, 4.516612214729956E+08, 2.323531731204119E+08, -3.349880286980088E+07,
2461204.500000000, A.D. 2026-Jun-13 00:00:00.0000, 4.488817830950139E+08, 2.384866222554139E+08, -3.263566575687093E+07,
2461211.500000000, A.D. 2026-Jun-20 00:00:00.0000, 4.459374568238961E+08, 2.445324234064545E+08, -3.176053875075452E+07,
2461218.500000000, A.D. 2026-Jun-27 00:00:00.0000, 4.428295400379889E+08, 2.504884767753655E+08, -3.087375874926014E+07,
2461225.500000000, A.D. 2026-Jul-04 00:00:00.0000, 4.395592939490171E+08, 2.563526684057093E+08, -2.997565959385106E+07,
2461232.500000000, A.D. 2026-Jul-11 00:00:00.0000, 4.361279452717881E+08, 2.621228673436982E+08, -2.906657250771767E+07,
2461239.500000000, A.D. 2026-Jul-18 00:00:00.0000, 4.325366878519575E+08, 2.677969227233664E+08, -2.814682653585406E+07,
2461246.500000000, A.D. 2026-Jul-25 00:00:00.0000, 4.287866842817230E+08, 2.733726607692129E+08, -2.721674899087729E+07,
2461253.500000000, A.D. 2026-Aug-01 00:00:00.0000, 4.248790675571890E+08, 2.788478816588568E+08, -2.627666591463192E+07,
2461260.500000000, A.D. 2026-Aug-08 00:00:00.0000, 4.208149429983397E+08, 2.842203562005557E+08, -2.532690257991600E+07,
2461267.500000000, A.D. 2026-Aug-15 00:00:00.0000, 4.165953908530249E+08, 2.894878227662369E+08, -2.436778403531155E+07,
2461274.500000000, A.D. 2026-Aug-22 00:00:00.0000, 4.122214688293738E+08, 2.946479856908225E+08, -2.339963552513567E+07,
2461281.500000000, A.D. 2026-Aug-29 00:00:00.0000, 4.076942122725976E+08, 2.996985137558909E+08, -2.242278268822511E+07,
2461288.500000000, A.D. 2026-Sep-05 00:00:00.0000, 4.030146341278690E+08, 3.046370358813992E+08, -2.143755196738639E+07,
2461295.500000000, A.D. 2026-Sep-12 00:00:00.0000, 3.981837271528333E+08, 3.094611365106154E+08, -2.044427125266220E+07,
$$EOE